DELTA 2 R/B(1)          
1 20453U 90008B   26031.16060837  .00053304  00000+0  72612-3 0  9999
2 20453  35.6064  60.1721 0098546 270.1117  88.8325 15.50790330920297
COSMOS 2058             
1 20465U 90010A   26031.63295147  .00003518  00000+0  20878-3 0  9990
2 20465  82.4642  83.9347 0011998 100.1330 260.1253 15.10979364936647
SL-14 R/B               
1 20466U 90010B   26031.79323880  .00000552  00000+0  63972-4 0  9992
2 20466  82.5041 302.0450 0021249  63.4354 296.9035 14.83533646923019
SL-14 R/B               
1 20511U 90018B   26031.70791781  .00000477  00000+0  56927-4 0  9999
2 20511  82.5190 257.6641 0015559 209.4750 150.5589 14.82106316917102
HST                     
1 20580U 90037B   26031.41648990  .00007521  00000+0  25257-3 0  9995
2 20580  28.4677 294.1564 0001995  63.4797 296.6003 15.28875742767603
SL-16 R/B               
1 20625U 90046B   26031.65465159 -.00000186  00000+0 -71469-4 0  9994
2 20625  70.9994  15.6909 0014383 350.9080   9.1780 14.15005312843157
COSMOS 2084             
1 20663U 90055A   26031.59319781  .00002942  00000+0  21698-3 0  9996
2 20663  62.7906 102.0794 0023077 182.5406 177.5581 15.05406508930737
SL-6 R/B(2)             
1 20666U 90055D   26031.39270567  .00002594  00000+0  20377-3 0  9991
2 20666  62.7839  20.6637 0019300 335.9027  24.1167 15.03380944932588
SL-8 R/B                
1 20775U 90078B   26031.73543466  .00014960  00000+0  44358-3 0  9991
2 20775  82.9044 284.5098 0367677 137.7955 225.2207 14.87822770803804
SL-8 R/B                
1 21088U 91006B   26031.80973304  .00000014  00000+0 -17106-5 0  9996
2 21088  82.9421 197.4668 0023373 136.4258 345.2128 13.77492015758997
OKEAN-3                 
1 21397U 91039A   26031.43779160  .00003359  00000+0  23736-3 0  9996
2 21397  82.5173  12.9215 0016111  96.8431 263.4629 15.04504081859430
COSMOS 2151             
1 21422U 91042A   26031.79431963  .00002324  00000+0  18473-3 0  9997
2 21422  82.4980 119.2632 0012643 177.8692 182.2588 14.99955646857668
