CCSDS_OMM_VERS = 2.0
CREATION_DATE  = 
ORIGINATOR     = 

OBJECT_NAME    = DELTA 2 R/B(1)
OBJECT_ID      = 1990-008B
CENTER_NAME    = EARTH
REF_FRAME      = TEME
TIME_SYSTEM    = UTC
MEAN_ELEMENT_THEORY = SGP/SGP4

EPOCH          = 2026-01-31T03:51:16.563168
MEAN_MOTION    = 15.50790330
ECCENTRICITY   = .00985468
INCLINATION    = 35.6064
RA_OF_ASC_NODE = 60.1721
ARG_OF_PERICENTER = 270.1117
MEAN_ANOMALY   = 88.8325

EPHEMERIS_TYPE = 0
CLASSIFICATION_TYPE = U
NORAD_CAT_ID   = 20453
ELEMENT_SET_NO = 999
REV_AT_EPOCH   = 92029
BSTAR          = .72612212E-3
MEAN_MOTION_DOT = .53304E-3
MEAN_MOTION_DDOT = 0

CCSDS_OMM_VERS = 2.0
CREATION_DATE  = 
ORIGINATOR     = 

OBJECT_NAME    = COSMOS 2058
OBJECT_ID      = 1990-010A
CENTER_NAME    = EARTH
REF_FRAME      = TEME
TIME_SYSTEM    = UTC
MEAN_ELEMENT_THEORY = SGP/SGP4

EPOCH          = 2026-01-31T15:11:27.007008
MEAN_MOTION    = 15.10979364
ECCENTRICITY   = .0011998
INCLINATION    = 82.4642
RA_OF_ASC_NODE = 83.9347
ARG_OF_PERICENTER = 100.1330
MEAN_ANOMALY   = 260.1253

EPHEMERIS_TYPE = 0
CLASSIFICATION_TYPE = U
NORAD_CAT_ID   = 20465
ELEMENT_SET_NO = 999
REV_AT_EPOCH   = 93664
BSTAR          = .20878E-3
MEAN_MOTION_DOT = .3518E-4
MEAN_MOTION_DDOT = 0

CCSDS_OMM_VERS = 2.0
CREATION_DATE  = 
ORIGINATOR     = 

OBJECT_NAME    = SL-14 R/B
OBJECT_ID      = 1990-010B
CENTER_NAME    = EARTH
REF_FRAME      = TEME
TIME_SYSTEM    = UTC
MEAN_ELEMENT_THEORY = SGP/SGP4

EPOCH          = 2026-01-31T19:02:15.832320
MEAN_MOTION    = 14.83533646
ECCENTRICITY   = .0021249
INCLINATION    = 82.5041
RA_OF_ASC_NODE = 302.0450
ARG_OF_PERICENTER = 63.4354
MEAN_ANOMALY   = 296.9035

EPHEMERIS_TYPE = 0
CLASSIFICATION_TYPE = U
NORAD_CAT_ID   = 20466
ELEMENT_SET_NO = 999
REV_AT_EPOCH   = 92301
BSTAR          = .63972E-4
MEAN_MOTION_DOT = .552E-5
MEAN_MOTION_DDOT = 0

CCSDS_OMM_VERS = 2.0
CREATION_DATE  = 
ORIGINATOR     = 

OBJECT_NAME    = SL-14 R/B
OBJECT_ID      = 1990-018B
CENTER_NAME    = EARTH
REF_FRAME      = TEME
TIME_SYSTEM    = UTC
MEAN_ELEMENT_THEORY = SGP/SGP4

EPOCH          = 2026-01-31T16:59:24.098784
MEAN_MOTION    = 14.82106316
ECCENTRICITY   = .0015559
INCLINATION    = 82.5190
RA_OF_ASC_NODE = 257.6641
ARG_OF_PERICENTER = 209.4750
MEAN_ANOMALY   = 150.5589

EPHEMERIS_TYPE = 0
CLASSIFICATION_TYPE = U
NORAD_CAT_ID   = 20511
ELEMENT_SET_NO = 999
REV_AT_EPOCH   = 91710
BSTAR          = .56927E-4
MEAN_MOTION_DOT = .477E-5
MEAN_MOTION_DDOT = 0

CCSDS_OMM_VERS = 2.0
CREATION_DATE  = 
ORIGINATOR     = 

OBJECT_NAME    = HST
OBJECT_ID      = 1990-037B
CENTER_NAME    = EARTH
REF_FRAME      = TEME
TIME_SYSTEM    = UTC
MEAN_ELEMENT_THEORY = SGP/SGP4

EPOCH          = 2026-01-31T09:59:44.727360
MEAN_MOTION    = 15.28875742
ECCENTRICITY   = .0001995
INCLINATION    = 28.4677
RA_OF_ASC_NODE = 294.1564
ARG_OF_PERICENTER = 63.4797
MEAN_ANOMALY   = 296.6003

EPHEMERIS_TYPE = 0
CLASSIFICATION_TYPE = U
NORAD_CAT_ID   = 20580
ELEMENT_SET_NO = 999
REV_AT_EPOCH   = 76760
BSTAR          = .25257E-3
MEAN_MOTION_DOT = .7521E-4
MEAN_MOTION_DDOT = 0

CCSDS_OMM_VERS = 2.0
CREATION_DATE  = 
ORIGINATOR     = 

OBJECT_NAME    = SL-16 R/B
OBJECT_ID      = 1990-046B
CENTER_NAME    = EARTH
REF_FRAME      = TEME
TIME_SYSTEM    = UTC
MEAN_ELEMENT_THEORY = SGP/SGP4

EPOCH          = 2026-01-31T15:42:41.897376
MEAN_MOTION    = 14.15005312
ECCENTRICITY   = .0014383
INCLINATION    = 70.9994
RA_OF_ASC_NODE = 15.6909
ARG_OF_PERICENTER = 350.9080
MEAN_ANOMALY   = 9.1780

EPHEMERIS_TYPE = 0
CLASSIFICATION_TYPE = U
NORAD_CAT_ID   = 20625
ELEMENT_SET_NO = 999
REV_AT_EPOCH   = 84315
BSTAR          = -.71469E-4
MEAN_MOTION_DOT = -.186E-5
MEAN_MOTION_DDOT = 0

CCSDS_OMM_VERS = 2.0
CREATION_DATE  = 
ORIGINATOR     = 

OBJECT_NAME    = COSMOS 2084
OBJECT_ID      = 1990-055A
CENTER_NAME    = EARTH
REF_FRAME      = TEME
TIME_SYSTEM    = UTC
MEAN_ELEMENT_THEORY = SGP/SGP4

EPOCH          = 2026-01-31T14:14:12.290784
MEAN_MOTION    = 15.05406508
ECCENTRICITY   = .0023077
INCLINATION    = 62.7906
RA_OF_ASC_NODE = 102.0794
ARG_OF_PERICENTER = 182.5406
MEAN_ANOMALY   = 177.5581

EPHEMERIS_TYPE = 0
CLASSIFICATION_TYPE = U
NORAD_CAT_ID   = 20663
ELEMENT_SET_NO = 999
REV_AT_EPOCH   = 93073
BSTAR          = .21698E-3
MEAN_MOTION_DOT = .2942E-4
MEAN_MOTION_DDOT = 0

CCSDS_OMM_VERS = 2.0
CREATION_DATE  = 
ORIGINATOR     = 

OBJECT_NAME    = SL-6 R/B(2)
OBJECT_ID      = 1990-055D
CENTER_NAME    = EARTH
REF_FRAME      = TEME
TIME_SYSTEM    = UTC
MEAN_ELEMENT_THEORY = SGP/SGP4

EPOCH          = 2026-01-31T09:25:29.769888
MEAN_MOTION    = 15.03380944
ECCENTRICITY   = .00193
INCLINATION    = 62.7839
RA_OF_ASC_NODE = 20.6637
ARG_OF_PERICENTER = 335.9027
MEAN_ANOMALY   = 24.1167

EPHEMERIS_TYPE = 0
CLASSIFICATION_TYPE = U
NORAD_CAT_ID   = 20666
ELEMENT_SET_NO = 999
REV_AT_EPOCH   = 93258
BSTAR          = .20377E-3
MEAN_MOTION_DOT = .2594E-4
MEAN_MOTION_DDOT = 0

CCSDS_OMM_VERS = 2.0
CREATION_DATE  = 
ORIGINATOR     = 

OBJECT_NAME    = SL-8 R/B
OBJECT_ID      = 1990-078B
CENTER_NAME    = EARTH
REF_FRAME      = TEME
TIME_SYSTEM    = UTC
MEAN_ELEMENT_THEORY = SGP/SGP4

EPOCH          = 2026-01-31T17:39:01.554624
MEAN_MOTION    = 14.87822770
ECCENTRICITY   = .0367677
INCLINATION    = 82.9044
RA_OF_ASC_NODE = 284.5098
ARG_OF_PERICENTER = 137.7955
MEAN_ANOMALY   = 225.2207

EPHEMERIS_TYPE = 0
CLASSIFICATION_TYPE = U
NORAD_CAT_ID   = 20775
ELEMENT_SET_NO = 999
REV_AT_EPOCH   = 80380
BSTAR          = .44358E-3
MEAN_MOTION_DOT = .1496E-3
MEAN_MOTION_DDOT = 0

CCSDS_OMM_VERS = 2.0
CREATION_DATE  = 
ORIGINATOR     = 

OBJECT_NAME    = SL-8 R/B
OBJECT_ID      = 1991-006B
CENTER_NAME    = EARTH
REF_FRAME      = TEME
TIME_SYSTEM    = UTC
MEAN_ELEMENT_THEORY = SGP/SGP4

EPOCH          = 2026-01-31T19:26:00.934656
MEAN_MOTION    = 13.77492015
ECCENTRICITY   = .0023373
INCLINATION    = 82.9421
RA_OF_ASC_NODE = 197.4668
ARG_OF_PERICENTER = 136.4258
MEAN_ANOMALY   = 345.2128

EPHEMERIS_TYPE = 0
CLASSIFICATION_TYPE = U
NORAD_CAT_ID   = 21088
ELEMENT_SET_NO = 999
REV_AT_EPOCH   = 75899
BSTAR          = -.17106E-5
MEAN_MOTION_DOT = .14E-6
MEAN_MOTION_DDOT = 0

CCSDS_OMM_VERS = 2.0
CREATION_DATE  = 
ORIGINATOR     = 

OBJECT_NAME    = OKEAN-3
OBJECT_ID      = 1991-039A
CENTER_NAME    = EARTH
REF_FRAME      = TEME
TIME_SYSTEM    = UTC
MEAN_ELEMENT_THEORY = SGP/SGP4

EPOCH          = 2026-01-31T10:30:25.194240
MEAN_MOTION    = 15.04504081
ECCENTRICITY   = .0016111
INCLINATION    = 82.5173
RA_OF_ASC_NODE = 12.9215
ARG_OF_PERICENTER = 96.8431
MEAN_ANOMALY   = 263.4629

EPHEMERIS_TYPE = 0
CLASSIFICATION_TYPE = U
NORAD_CAT_ID   = 21397
ELEMENT_SET_NO = 999
REV_AT_EPOCH   = 85943
BSTAR          = .23736E-3
MEAN_MOTION_DOT = .3359E-4
MEAN_MOTION_DDOT = 0

CCSDS_OMM_VERS = 2.0
CREATION_DATE  = 
ORIGINATOR     = 

OBJECT_NAME    = COSMOS 2151
OBJECT_ID      = 1991-042A
CENTER_NAME    = EARTH
REF_FRAME      = TEME
TIME_SYSTEM    = UTC
MEAN_ELEMENT_THEORY = SGP/SGP4

EPOCH          = 2026-01-31T19:03:49.216032
MEAN_MOTION    = 14.99955646
ECCENTRICITY   = .0012643
INCLINATION    = 82.4980
RA_OF_ASC_NODE = 119.2632
ARG_OF_PERICENTER = 177.8692
MEAN_ANOMALY   = 182.2588

EPHEMERIS_TYPE = 0
CLASSIFICATION_TYPE = U
NORAD_CAT_ID   = 21422
ELEMENT_SET_NO = 999
REV_AT_EPOCH   = 85766
BSTAR          = .18473E-3
MEAN_MOTION_DOT = .2324E-4
MEAN_MOTION_DDOT = 0

